start=new Date('2023-03-01T00:00:00.000Z').valueOf();
sats=[{"EPOCH":"2023-03-01T00:00:00.999648","OBJECT_ID":"2023-021AR","COUNTRY_CODE":"US","NORAD_CAT_ID":"55667","OBJECT_TYPE":"PAYLOAD","GP_ID":"227276141","PERIOD":"91.057","SITE":"AFWTR","RA_OF_ASC_NODE":"118.4865","INCLINATION":"70.0002","REF_FRAME":"TEME","MEAN_ELEMENT_THEORY":"SGP4","DECAY_DATE":null,"OBJECT_NAME":"STARLINK-5456","REV_AT_EPOCH":"230","TLE_LINE1":"1 55667U 23021AR  23060.00001157 -.00976273  00000-0 -54867-2 0  9990","LAUNCH_DATE":"2023-02-17","MEAN_MOTION_DOT":"-0.00976273","TIME_SYSTEM":"UTC","SEMIMAJOR_AXIS":"6704.522","MEAN_MOTION":"15.81433866","ELEMENT_SET_NO":"999","TLE_LINE2":"2 55667  70.0002 118.4865 0003556 267.4816 334.5383 15.81433866  2305","CENTER_NAME":"EARTH","RCS_SIZE":null,"APOAPSIS":"328.771","ARG_OF_PERICENTER":"267.4816","MEAN_MOTION_DDOT":"0.0000000000000","PERIAPSIS":"324.003","CLASSIFICATION_TYPE":"U","ECCENTRICITY":"0.00035560","FILE":"3847867","MEAN_ANOMALY":"334.5383","BSTAR":"-0.00548670000000","EPHEMERIS_TYPE":"0"},{"EPHEMERIS_TYPE":"0","BSTAR":"-0.00550390000000","MEAN_ANOMALY":"333.4239","FILE":"3847862","ECCENTRICITY":"0.00035470","CLASSIFICATION_TYPE":"U","PERIAPSIS":"324.157","ARG_OF_PERICENTER":"266.6503","MEAN_MOTION_DDOT":"0.0000000000000","APOAPSIS":"328.913","CENTER_NAME":"EARTH","RCS_SIZE":null,"TLE_LINE2":"2 55668  70.0002 118.4889 0003547 266.6503 333.4239 15.81381388  2305","ELEMENT_SET_NO":"999","MEAN_MOTION":"15.81381388","SEMIMAJOR_AXIS":"6704.670","LAUNCH_DATE":"2023-02-17","TIME_SYSTEM":"UTC","MEAN_MOTION_DOT":"-0.00976867","TLE_LINE1":"1 55668U 23021AS  23060.00001157 -.00976867  00000-0 -55039-2 0  9992","OBJECT_NAME":"STARLINK-5455","DECAY_DATE":null,"REV_AT_EPOCH":"230","INCLINATION":"70.0002","REF_FRAME":"TEME","MEAN_ELEMENT_THEORY":"SGP4","RA_OF_ASC_NODE":"118.4889","PERIOD":"91.060","SITE":"AFWTR","GP_ID":"227275889","OBJECT_TYPE":"PAYLOAD","NORAD_CAT_ID":"55668","OBJECT_ID":"2023-021AS","COUNTRY_CODE":"US","EPOCH":"2023-03-01T00:00:00.999648"},{"REF_FRAME":"TEME","MEAN_ELEMENT_THEORY":"SGP4","INCLINATION":"70.0001","RA_OF_ASC_NODE":"118.7258","SITE":"AFWTR","PERIOD":"91.047","OBJECT_TYPE":"PAYLOAD","GP_ID":"227271081","NORAD_CAT_ID":"55669","COUNTRY_CODE":"US","OBJECT_ID":"2023-021AT","EPOCH":"2023-02-28T22:00:00.999936","TLE_LINE2":"2 55669  70.0001 118.7258 0003712 281.2419 205.6932 15.81607997  1307","ELEMENT_SET_NO":"999","MEAN_MOTION":"15.81607997","SEMIMAJOR_AXIS":"6704.030","TIME_SYSTEM":"UTC","MEAN_MOTION_DOT":"-0.01002855","LAUNCH_DATE":"2023-02-17","TLE_LINE1":"1 55669U 23021AT  23059.91667824 -.01002855  00000-0 -56076-2 0  9990","REV_AT_EPOCH":"130","DECAY_DATE":null,"OBJECT_NAME":"STARLINK-5459","CLASSIFICATION_TYPE":"U","PERIAPSIS":"323.406","MEAN_MOTION_DDOT":"0.0000000000000","ARG_OF_PERICENTER":"281.2419","APOAPSIS":"328.383","RCS_SIZE":null,"CENTER_NAME":"EARTH","EPHEMERIS_TYPE":"0","BSTAR":"-0.00560760000000","MEAN_ANOMALY":"205.6932","FILE":"3847656","ECCENTRICITY":"0.00037120"},{"INCLINATION":"69.9996","MEAN_ELEMENT_THEORY":"SGP4","REF_FRAME":"TEME","RA_OF_ASC_NODE":"118.7242","PERIOD":"91.045","SITE":"AFWTR","OBJECT_TYPE":"PAYLOAD","GP_ID":"227270988","NORAD_CAT_ID":"55670","OBJECT_ID":"2023-021AU","COUNTRY_CODE":"US","EPOCH":"2023-02-28T22:00:00.999936","TLE_LINE2":"2 55670  69.9996 118.7242 0003635 278.0049 210.0779 15.81635825  1309","ELEMENT_SET_NO":"999","MEAN_MOTION":"15.81635825","SEMIMAJOR_AXIS":"6703.951","LAUNCH_DATE":"2023-02-17","TIME_SYSTEM":"UTC","MEAN_MOTION_DOT":"-0.00996772","TLE_LINE1":"1 55670U 23021AU  23059.91667824 -.00996772  00000-0 -55626-2 0  9991","OBJECT_NAME":"STARLINK-5423","DECAY_DATE":null,"REV_AT_EPOCH":"130","CLASSIFICATION_TYPE":"U","PERIAPSIS":"323.379","ARG_OF_PERICENTER":"278.0049","MEAN_MOTION_DDOT":"0.0000000000000","APOAPSIS":"328.253","CENTER_NAME":"EARTH","RCS_SIZE":null,"EPHEMERIS_TYPE":"0","BSTAR":"-0.00556260000000","MEAN_ANOMALY":"210.0779","FILE":"3847656","ECCENTRICITY":"0.00036350"},{"OBJECT_ID":"2023-021AV","COUNTRY_CODE":"US","NORAD_CAT_ID":"55671","EPOCH":"2023-02-28T22:00:00.999936","RA_OF_ASC_NODE":"118.7213","INCLINATION":"69.9997","REF_FRAME":"TEME","MEAN_ELEMENT_THEORY":"SGP4","GP_ID":"227271097","OBJECT_TYPE":"PAYLOAD","PERIOD":"91.041","SITE":"AFWTR","LAUNCH_DATE":"2023-02-17","MEAN_MOTION_DOT":"-0.01001844","TIME_SYSTEM":"UTC","DECAY_DATE":null,"OBJECT_NAME":"STARLINK-5460","REV_AT_EPOCH":"130","TLE_LINE1":"1 55671U 23021AV  23059.91667824 -.01001844  00000-0 -55764-2 0  9993","ELEMENT_SET_NO":"999","TLE_LINE2":"2 55671  69.9997 118.7213 0003651 278.6419 211.7295 15.81704106  1304","SEMIMAJOR_AXIS":"6703.758","MEAN_MOTION":"15.81704106","CENTER_NAME":"EARTH","RCS_SIZE":null,"PERIAPSIS":"323.176","CLASSIFICATION_TYPE":"U","APOAPSIS":"328.071","ARG_OF_PERICENTER":"278.6419","MEAN_MOTION_DDOT":"0.0000000000000","FILE":"3847656","MEAN_ANOMALY":"211.7295","ECCENTRICITY":"0.00036510","BSTAR":"-0.00557640000000","EPHEMERIS_TYPE":"0"},{"LAUNCH_DATE":"2023-02-17","MEAN_MOTION_DOT":"-0.01004674","TIME_SYSTEM":"UTC","TLE_LINE1":"1 55672U 23021AW  23059.91667824 -.01004674  00000-0 -55964-2 0  9990","OBJECT_NAME":"STARLINK-5461","DECAY_DATE":null,"REV_AT_EPOCH":"130","TLE_LINE2":"2 55672  70.0000 118.7219 0003638 279.1616 210.8358 15.81695252  1300","ELEMENT_SET_NO":"999","MEAN_MOTION":"15.81695252","SEMIMAJOR_AXIS":"6703.783","NORAD_CAT_ID":"55672","OBJECT_ID":"2023-021AW","COUNTRY_CODE":"US","EPOCH":"2023-02-28T22:00:00.999936","INCLINATION":"70.0000","MEAN_ELEMENT_THEORY":"SGP4","REF_FRAME":"TEME","RA_OF_ASC_NODE":"118.7219","PERIOD":"91.042","SITE":"AFWTR","GP_ID":"227271066","OBJECT_TYPE":"PAYLOAD","MEAN_ANOMALY":"210.8358","FILE":"3847656","ECCENTRICITY":"0.00036380","EPHEMERIS_TYPE":"0","BSTAR":"-0.00559640000000","RCS_SIZE":null,"CENTER_NAME":"EARTH","CLASSIFICATION_TYPE":"U","PERIAPSIS":"323.209","ARG_OF_PERICENTER":"279.1616","MEAN_MOTION_DDOT":"0.0000000000000","APOAPSIS":"328.087"},{"TLE_LINE2":"2 55673  70.0000 118.7233 0003711 280.8251 208.0241 15.81662237  1300","ELEMENT_SET_NO":"999","MEAN_MOTION":"15.81662237","SEMIMAJOR_AXIS":"6703.877","MEAN_MOTION_DOT":"-0.01003686","TIME_SYSTEM":"UTC","LAUNCH_DATE":"2023-02-17","TLE_LINE1":"1 55673U 23021AX  23059.91667824 -.01003686  00000-0 -55986-2 0  9997","DECAY_DATE":null,"OBJECT_NAME":"STARLINK-5463","REV_AT_EPOCH":"130","REF_FRAME":"TEME","MEAN_ELEMENT_THEORY":"SGP4","INCLINATION":"70.0000","RA_OF_ASC_NODE":"118.7233","SITE":"AFWTR","PERIOD":"91.043","OBJECT_TYPE":"PAYLOAD","GP_ID":"227271019","NORAD_CAT_ID":"55673","COUNTRY_CODE":"US","OBJECT_ID":"2023-021AX","EPOCH":"2023-02-28T22:00:00.999936","EPHEMERIS_TYPE":"0","BSTAR":"-0.00559860000000","MEAN_ANOMALY":"208.0241","FILE":"3847656","ECCENTRICITY":"0.00037110","CLASSIFICATION_TYPE":"U","PERIAPSIS":"323.254","MEAN_MOTION_DDOT":"0.0000000000000","ARG_OF_PERICENTER":"280.8251","APOAPSIS":"328.229","RCS_SIZE":null,"CENTER_NAME":"EARTH"},{"FILE":"3847656","MEAN_ANOMALY":"211.1232","ECCENTRICITY":"0.00036110","BSTAR":"-0.00560660000000","EPHEMERIS_TYPE":"0","CENTER_NAME":"EARTH","RCS_SIZE":null,"PERIAPSIS":"323.255","CLASSIFICATION_TYPE":"U","APOAPSIS":"328.096","ARG_OF_PERICENTER":"278.4899","MEAN_MOTION_DDOT":"0.0000000000000","LAUNCH_DATE":"2023-02-17","MEAN_MOTION_DOT":"-0.01005891","TIME_SYSTEM":"UTC","DECAY_DATE":null,"REV_AT_EPOCH":"130","OBJECT_NAME":"STARLINK-5462","TLE_LINE1":"1 55674U 23021AY  23059.91667824 -.01005891  00000-0 -56066-2 0  9998","ELEMENT_SET_NO":"999","TLE_LINE2":"2 55674  70.0001 118.7228 0003611 278.4899 211.1232 15.81685694  1303","SEMIMAJOR_AXIS":"6703.810","MEAN_MOTION":"15.81685694","OBJECT_ID":"2023-021AY","COUNTRY_CODE":"US","NORAD_CAT_ID":"55674","EPOCH":"2023-02-28T22:00:00.999936","RA_OF_ASC_NODE":"118.7228","INCLINATION":"70.0001","REF_FRAME":"TEME","MEAN_ELEMENT_THEORY":"SGP4","OBJECT_TYPE":"PAYLOAD","GP_ID":"227271051","PERIOD":"91.042","SITE":"AFWTR"},{"MEAN_MOTION_DOT":"-0.01038437","TIME_SYSTEM":"UTC","LAUNCH_DATE":"2023-02-17","OBJECT_NAME":"STARLINK-5232","DECAY_DATE":null,"REV_AT_EPOCH":"130","TLE_LINE1":"1 55675U 23021AZ  23059.91667824 -.01038437  00000-0 -58126-2 0  9990","ELEMENT_SET_NO":"999","TLE_LINE2":"2 55675  69.9996 118.7228 0003601 279.8768 208.5852 15.81678494  1301","SEMIMAJOR_AXIS":"6703.831","MEAN_MOTION":"15.81678494","COUNTRY_CODE":"US","OBJECT_ID":"2023-021AZ","NORAD_CAT_ID":"55675","EPOCH":"2023-02-28T22:00:00.999936","RA_OF_ASC_NODE":"118.7228","REF_FRAME":"TEME","MEAN_ELEMENT_THEORY":"SGP4","INCLINATION":"69.9996","OBJECT_TYPE":"PAYLOAD","GP_ID":"227271035","SITE":"AFWTR","PERIOD":"91.043","FILE":"3847656","MEAN_ANOMALY":"208.5852","ECCENTRICITY":"0.00036010","BSTAR":"-0.00581260000000","EPHEMERIS_TYPE":"0","RCS_SIZE":null,"CENTER_NAME":"EARTH","PERIAPSIS":"323.282","CLASSIFICATION_TYPE":"U","APOAPSIS":"328.110","MEAN_MOTION_DDOT":"0.0000000000000","ARG_OF_PERICENTER":"279.8768"},{"MEAN_MOTION":"15.81690686","SEMIMAJOR_AXIS":"6703.796","TLE_LINE2":"2 55676  70.0002 118.7212 0003581 278.6029 212.1555 15.81690686  1308","ELEMENT_SET_NO":"999","TLE_LINE1":"1 55676U 23021BA  23059.91667824 -.00967426  00000-0 -53665-2 0  9992","DECAY_DATE":null,"REV_AT_EPOCH":"130","OBJECT_NAME":"STARLINK-5300","LAUNCH_DATE":"2023-02-17","MEAN_MOTION_DOT":"-0.00967426","TIME_SYSTEM":"UTC","PERIOD":"91.042","SITE":"AFWTR","OBJECT_TYPE":"PAYLOAD","GP_ID":"227271004","INCLINATION":"70.0002","REF_FRAME":"TEME","MEAN_ELEMENT_THEORY":"SGP4","RA_OF_ASC_NODE":"118.7212","EPOCH":"2023-02-28T22:00:00.999936","NORAD_CAT_ID":"55676","OBJECT_ID":"2023-021BA","COUNTRY_CODE":"US","EPHEMERIS_TYPE":"0","BSTAR":"-0.00536650000000","ECCENTRICITY":"0.00035810","MEAN_ANOMALY":"212.1555","FILE":"3847656","ARG_OF_PERICENTER":"278.6029","MEAN_MOTION_DDOT":"0.0000000000000","APOAPSIS":"328.062","CLASSIFICATION_TYPE":"U","PERIAPSIS":"323.261","CENTER_NAME":"EARTH","RCS_SIZE":null}];
